{"type":"FeatureCollection","features":[{"type":"Feature","properties":{"upstream":"Novi Sad 4 - Sever III","secondary":"Liman","ratio":"35/10 (plus 35/20 section)","route_length_km":5.411589871648305,"upstream_association_status":"documented in EDS plan","provenance":"Upstream association documented in EDS plan; street-routed 35 kV corridor is inferred and exact route is unverified"},"geometry":{"type":"MultiLineString","coordinates":[[[19.7989571,45.2774711],[19.7989407,45.277321]],[[19.7989407,45.277321],[19.7989039,45.2769868]],[[19.7989039,45.2769868],[19.7988442,45.2764643]],[[19.7988442,45.2764643],[19.7988056,45.2763977]],[[19.7988056,45.2763977],[19.7993383,45.276138]],[[19.7993383,45.276138],[19.7996329,45.2759967]],[[19.7996329,45.2759967],[19.7997175,45.2759556]],[[19.7997175,45.2759556],[19.8002451,45.2756992]],[[19.8002451,45.2756992],[19.8003647,45.2756448]],[[19.8003647,45.2756448],[19.8004772,45.2755863]],[[19.8004772,45.2755863],[19.8005426,45.2755583]],[[19.8005426,45.2755583],[19.800565,45.2755487]],[[19.800565,45.2755487],[19.8006042,45.275537]],[[19.8006042,45.275537],[19.8006453,45.2755247]],[[19.8006453,45.2755247],[19.8007028,45.2755075]],[[19.8007028,45.2755075],[19.800818,45.2754866]],[[19.800818,45.2754866],[19.8008701,45.2754988]],[[19.8008701,45.2754988],[19.8009214,45.2755044]],[[19.8009214,45.2755044],[19.8009733,45.275504]],[[19.8009733,45.275504],[19.8010245,45.2754978]],[[19.8010245,45.2754978],[19.8010735,45.2754858]],[[19.8010735,45.2754858],[19.8011191,45.2754683]],[[19.8011191,45.2754683],[19.8011601,45.2754459]],[[19.8011601,45.2754459],[19.8011954,45.2754191]],[[19.8011954,45.2754191],[19.8012298,45.2753809]],[[19.8012298,45.2753809],[19.8012526,45.2753386]],[[19.8012526,45.2753386],[19.801263,45.2752939]],[[19.801263,45.2752939],[19.8012604,45.2752487]],[[19.8012604,45.2752487],[19.80132,45.275195]],[[19.80132,45.275195],[19.8013955,45.2751372]],[[19.8013955,45.2751372],[19.8014296,45.2751144]],[[19.8014296,45.2751144],[19.8014499,45.2751014]],[[19.8014499,45.2751014],[19.8015913,45.2750107]],[[19.8015913,45.2750107],[19.8017682,45.274911]],[[19.8017682,45.274911],[19.8045529,45.2734799]],[[19.8045529,45.2734799],[19.8051893,45.2731268]],[[19.8051893,45.2731268],[19.8056158,45.2728552]],[[19.8056158,45.2728552],[19.8058142,45.2727174]],[[19.8058142,45.2727174],[19.8063079,45.272371]],[[19.8063079,45.272371],[19.8065743,45.2721749]],[[19.8065743,45.2721749],[19.8067389,45.2720537]],[[19.8067389,45.2720537],[19.8068268,45.2719928]],[[19.8068268,45.2719928],[19.8068649,45.2719662]],[[19.8068649,45.2719662],[19.807021,45.2718486]],[[19.807021,45.2718486],[19.8074191,45.2715489]],[[19.8074191,45.2715489],[19.8075315,45.2714643]],[[19.8075315,45.2714643],[19.8082025,45.2709622]],[[19.8082025,45.2709622],[19.8082609,45.270918]],[[19.8082609,45.270918],[19.8082758,45.2709069]],[[19.8082758,45.2709069],[19.8083121,45.2708799]],[[19.8083121,45.2708799],[19.8085095,45.2707327]],[[19.8085095,45.2707327],[19.80904,45.270331]],[[19.80904,45.270331],[19.8091959,45.270213]],[[19.8091959,45.270213],[19.8102432,45.26942]],[[19.8102432,45.26942],[19.8110175,45.2688356]],[[19.8110175,45.2688356],[19.8112503,45.2686677]],[[19.8112503,45.2686677],[19.8117155,45.2683321]],[[19.8117155,45.2683321],[19.8123255,45.2678685]],[[19.8123255,45.2678685],[19.8123424,45.267853]],[[19.8123424,45.267853],[19.8123972,45.2678111]],[[19.8123972,45.2678111],[19.8124916,45.267739]],[[19.8124916,45.267739],[19.8126036,45.2676536]],[[19.8126036,45.2676536],[19.8126338,45.2676326]],[[19.8126338,45.2676326],[19.8127357,45.2675535]],[[19.8127357,45.2675535],[19.8131397,45.2672455]],[[19.8131397,45.2672455],[19.8133488,45.2670861]],[[19.8133488,45.2670861],[19.8150601,45.2657814]],[[19.8150601,45.2657814],[19.8150977,45.2657532]],[[19.8150977,45.2657532],[19.8155806,45.2653924]],[[19.8155806,45.2653924],[19.8161004,45.2650042]],[[19.8161004,45.2650042],[19.8162095,45.2649206]],[[19.8162095,45.2649206],[19.8163666,45.2648003]],[[19.8163666,45.2648003],[19.8164936,45.2646955]],[[19.8164936,45.2646955],[19.8169746,45.2643035]],[[19.8169746,45.2643035],[19.8169853,45.2642947]],[[19.8169853,45.2642947],[19.8170779,45.264219]],[[19.8170779,45.264219],[19.8171867,45.2641209]],[[19.8171867,45.2641209],[19.8172647,45.2640535]],[[19.8172647,45.2640535],[19.8172844,45.2640359]],[[19.8172844,45.2640359],[19.817314,45.2640088]],[[19.817314,45.2640088],[19.8181397,45.2632638]],[[19.8181397,45.2632638],[19.8184663,45.2629756]],[[19.8184663,45.2629756],[19.8184775,45.2629657]],[[19.8184775,45.2629657],[19.8185963,45.2628543]],[[19.8185963,45.2628543],[19.8186835,45.2627703]],[[19.8186835,45.2627703],[19.8187486,45.2627189]],[[19.8187486,45.2627189],[19.8188086,45.2626619]],[[19.8188086,45.2626619],[19.8188364,45.2626386]],[[19.8188364,45.2626386],[19.818875,45.2626044]],[[19.818875,45.2626044],[19.8192711,45.2622535]],[[19.8192711,45.2622535],[19.8205664,45.2611155]],[[19.8205664,45.2611155],[19.8218103,45.2600375]],[[19.8218103,45.2600375],[19.8219155,45.2599466]],[[19.8219155,45.2599466],[19.8228103,45.2591902]],[[19.8228103,45.2591902],[19.8228398,45.2591622]],[[19.8228398,45.2591622],[19.8229462,45.2590613]],[[19.8229462,45.2590613],[19.8230327,45.2589792]],[[19.8230327,45.2589792],[19.8232154,45.2589943]],[[19.8232154,45.2589943],[19.8232611,45.2589981]],[[19.8232611,45.2589981],[19.8235946,45.2590359]],[[19.8235946,45.2590359],[19.8241438,45.2591011]],[[19.8241438,45.2591011],[19.8241836,45.2590124]],[[19.8241836,45.2590124],[19.8241887,45.2587971]],[[19.8241887,45.2587971],[19.8242146,45.2583461]],[[19.8242146,45.2583461],[19.8242296,45.25825]],[[19.8242296,45.25825],[19.8242464,45.2581769]],[[19.8242464,45.2581769],[19.8242685,45.2580957]],[[19.8242685,45.2580957],[19.8243007,45.2580013]],[[19.8243007,45.2580013],[19.8243312,45.25793]],[[19.8243312,45.25793],[19.8243885,45.2578247]],[[19.8243885,45.2578247],[19.8244566,45.2577171]],[[19.8244566,45.2577171],[19.8245587,45.2575819]],[[19.8245587,45.2575819],[19.8249003,45.257143]],[[19.8249003,45.257143],[19.8251209,45.2568708]],[[19.8251209,45.2568708],[19.8252432,45.2567205]],[[19.8252432,45.2567205],[19.8253049,45.2566463]],[[19.8253049,45.2566463],[19.8253528,45.2565856]],[[19.8253528,45.2565856],[19.8258736,45.255946]],[[19.8258736,45.255946],[19.8263721,45.2553346]],[[19.8263721,45.2553346],[19.8270255,45.2545332]],[[19.8270255,45.2545332],[19.8270698,45.2544671]],[[19.8270698,45.2544671],[19.8271378,45.2543623]],[[19.8271378,45.2543623],[19.8272046,45.2542584]],[[19.8272046,45.2542584],[19.8272188,45.2540099]],[[19.8272188,45.2540099],[19.8274448,45.2540125]],[[19.8274448,45.2540125],[19.8274823,45.2539645]],[[19.8274823,45.2539645],[19.8282118,45.2530294]],[[19.8282118,45.2530294],[19.8282303,45.2530058]],[[19.8282303,45.2530058],[19.8283104,45.2529279]],[[19.8283104,45.2529279],[19.8283714,45.2528903]],[[19.8283714,45.2528903],[19.8284516,45.2528742]],[[19.8284516,45.2528742],[19.8285393,45.2528715]],[[19.8285393,45.2528715],[19.8288075,45.252909]],[[19.8288075,45.252909],[19.8289977,45.2529356]],[[19.8289977,45.2529356],[19.8291207,45.2529556]],[[19.8291207,45.2529556],[19.8300002,45.2530986]],[[19.8300002,45.2530986],[19.8306546,45.2531975]],[[19.8306546,45.2531975],[19.8308947,45.2532284]],[[19.8308947,45.2532284],[19.8310264,45.2532454]],[[19.8310264,45.2532454],[19.8310486,45.253177]],[[19.8310486,45.253177],[19.8310576,45.2531495]],[[19.8310576,45.2531495],[19.8312804,45.2524871]],[[19.8312804,45.2524871],[19.8313209,45.2523665]],[[19.8313209,45.2523665],[19.8311647,45.2523432]],[[19.8311647,45.2523432],[19.8309351,45.252309]],[[19.8309351,45.252309],[19.8312843,45.2516135]],[[19.8312843,45.2516135],[19.8315064,45.2512161]],[[19.8315064,45.2512161],[19.8316465,45.2509991]],[[19.8316465,45.2509991],[19.831678,45.2509567]],[[19.831678,45.2509567],[19.8317801,45.250819]],[[19.8317801,45.250819],[19.8318244,45.2507648]],[[19.8318244,45.2507648],[19.8318676,45.2507119]],[[19.8318676,45.2507119],[19.8322626,45.2502285]],[[19.8322626,45.2502285],[19.8323611,45.2501082]],[[19.8323611,45.2501082],[19.8325507,45.2498764]],[[19.8325507,45.2498764],[19.8325849,45.2498321]],[[19.8325849,45.2498321],[19.8326036,45.2497968]],[[19.8326036,45.2497968],[19.8326403,45.2497498]],[[19.8326403,45.2497498],[19.8327567,45.2496901]],[[19.8327567,45.2496901],[19.8328179,45.2495998]],[[19.8328179,45.2495998],[19.832831,45.2495805]],[[19.832831,45.2495805],[19.83284,45.2495671]],[[19.83284,45.2495671],[19.8330038,45.249335]],[[19.8330038,45.249335],[19.8331549,45.2491521]],[[19.8331549,45.2491521],[19.8333293,45.2489865]],[[19.8333293,45.2489865],[19.8334938,45.2488611]],[[19.8334938,45.2488611],[19.8335073,45.2488508]],[[19.8335073,45.2488508],[19.8335204,45.2488432]],[[19.8335204,45.2488432],[19.833554,45.2488255]],[[19.833554,45.2488255],[19.8336501,45.2487748]],[[19.8336501,45.2487748],[19.8337452,45.2487247]],[[19.8337452,45.2487247],[19.8339446,45.2486257]],[[19.8339446,45.2486257],[19.8341934,45.2484923]],[[19.8341934,45.2484923],[19.8343796,45.2484008]],[[19.8343796,45.2484008],[19.8346602,45.248275]],[[19.8346602,45.248275],[19.8347081,45.2482535]],[[19.8347081,45.2482535],[19.8348299,45.2481989]],[[19.8348299,45.2481989],[19.8349715,45.2481474]],[[19.8349715,45.2481474],[19.835007,45.2481351]],[[19.835007,45.2481351],[19.8350379,45.2481259]],[[19.8350379,45.2481259],[19.8352041,45.2480763]],[[19.8352041,45.2480763],[19.8352585,45.2480601]],[[19.8352585,45.2480601],[19.8354751,45.2479985]],[[19.8354751,45.2479985],[19.835516,45.2479884]],[[19.835516,45.2479884],[19.8357641,45.2479369]],[[19.8357641,45.2479369],[19.8361195,45.2478708]],[[19.8361195,45.2478708],[19.8362756,45.2478489]],[[19.8362756,45.2478489],[19.8363204,45.2478426]],[[19.8363204,45.2478426],[19.8364878,45.2478192]],[[19.8364878,45.2478192],[19.8366111,45.247811]],[[19.8366111,45.247811],[19.8366555,45.2478081]],[[19.8366555,45.2478081],[19.8366813,45.2478064]],[[19.8366813,45.2478064],[19.8370926,45.2477792]],[[19.8370926,45.2477792],[19.8373965,45.247772]],[[19.8373965,45.247772],[19.837489,45.2477698]],[[19.837489,45.2477698],[19.8377078,45.2477775]],[[19.8377078,45.2477775],[19.8379343,45.2477889]],[[19.8379343,45.2477889],[19.8381551,45.2478097]],[[19.8381551,45.2478097],[19.8384019,45.2478469]],[[19.8384019,45.2478469],[19.8385813,45.2478799]],[[19.8385813,45.2478799],[19.8386856,45.2478993]],[[19.8386856,45.2478993],[19.8389207,45.2479479]],[[19.8389207,45.2479479],[19.8389672,45.2479582]],[[19.8389672,45.2479582],[19.8391203,45.2479922]],[[19.8391203,45.2479922],[19.8391752,45.247889]],[[19.8391752,45.247889],[19.8392407,45.2477657]],[[19.8392407,45.2477657],[19.839258,45.2477332]],[[19.839258,45.2477332],[19.8398356,45.2467104]],[[19.8398356,45.2467104],[19.8398558,45.2466728]],[[19.8398558,45.2466728],[19.8398721,45.2466449]],[[19.8398721,45.2466449],[19.8398747,45.2466402]],[[19.8398747,45.2466402],[19.8399908,45.2464323]],[[19.8399908,45.2464323],[19.8400374,45.2463488]],[[19.8400374,45.2463488],[19.8400599,45.2463084]],[[19.8400599,45.2463084],[19.8409728,45.2446614]],[[19.8409728,45.2446614],[19.8408169,45.244617]],[[19.8408169,45.244617],[19.8407367,45.244595]],[[19.8407367,45.244595],[19.8406312,45.244568]],[[19.8406312,45.244568],[19.840876929155534,45.24409739761499]],[[19.840876929155534,45.24409739761499],[19.840722,45.2440165]]]}},{"type":"Feature","properties":{"upstream":"Novi Sad 2","secondary":"Centar","ratio":"35/10","route_length_km":3.9642910000000016,"upstream_association_status":"documented in EDS plan","provenance":"Upstream association documented in EDS plan; street-routed 35 kV corridor is inferred and exact route is unverified"},"geometry":{"type":"MultiLineString","coordinates":[[[19.8459439,45.2727107],[19.8464662,45.272531]],[[19.8464662,45.272531],[19.8466758,45.272454]],[[19.8466758,45.272454],[19.8467283,45.2724347]],[[19.8467283,45.2724347],[19.8464863,45.272085]],[[19.8464863,45.272085],[19.8463189,45.2718697]],[[19.8463189,45.2718697],[19.8461151,45.2715993]],[[19.8461151,45.2715993],[19.845922,45.2713756]],[[19.845922,45.2713756],[19.8457047,45.2711774]],[[19.8457047,45.2711774],[19.8454526,45.2709934]],[[19.8454526,45.2709934],[19.845171,45.2708386]],[[19.845171,45.2708386],[19.8450392,45.2707669]],[[19.8450392,45.2707669],[19.8447269,45.2706458]],[[19.8447269,45.2706458],[19.8442946,45.2705504]],[[19.8442946,45.2705504],[19.8440204,45.2704976]],[[19.8440204,45.2704976],[19.8437431,45.2704586]],[[19.8437431,45.2704586],[19.8432827,45.2704121]],[[19.8432827,45.2704121],[19.8431967,45.2704035]],[[19.8431967,45.2704035],[19.8429,45.2703767]],[[19.8429,45.2703767],[19.842714,45.2703598]],[[19.842714,45.2703598],[19.8423034,45.2703263]],[[19.8423034,45.2703263],[19.8421576,45.2703144]],[[19.8421576,45.2703144],[19.8421855,45.2702116]],[[19.8421855,45.2702116],[19.8422175,45.2701218]],[[19.8422175,45.2701218],[19.8423113,45.2698583]],[[19.8423113,45.2698583],[19.8423828,45.2696305]],[[19.8423828,45.2696305],[19.842514,45.2692963]],[[19.842514,45.2692963],[19.8425234,45.2692723]],[[19.8425234,45.2692723],[19.842726,45.2687366]],[[19.842726,45.2687366],[19.8427355,45.2687028]],[[19.8427355,45.2687028],[19.8427422,45.2686712]],[[19.8427422,45.2686712],[19.8427458,45.2686428]],[[19.8427458,45.2686428],[19.8427456,45.2685515]],[[19.8427456,45.2685515],[19.8428029,45.2683985]],[[19.8428029,45.2683985],[19.8428272,45.2683334]],[[19.8428272,45.2683334],[19.8428442,45.268298]],[[19.8428442,45.268298],[19.8428627,45.2682653]],[[19.8428627,45.2682653],[19.8429205,45.2681177]],[[19.8429205,45.2681177],[19.8430025,45.2679091]],[[19.8430025,45.2679091],[19.8430361,45.2678234]],[[19.8430361,45.2678234],[19.8430462,45.2677975]],[[19.8430462,45.2677975],[19.8430677,45.2677427]],[[19.8430677,45.2677427],[19.8430963,45.2676699]],[[19.8430963,45.2676699],[19.8431103,45.2676342]],[[19.8431103,45.2676342],[19.843195,45.2673632]],[[19.843195,45.2673632],[19.8432102,45.2673294]],[[19.8432102,45.2673294],[19.8432301,45.2672528]],[[19.8432301,45.2672528],[19.8432755,45.2671289]],[[19.8432755,45.2671289],[19.8433312,45.2669903]],[[19.8433312,45.2669903],[19.8433453,45.2669539]],[[19.8433453,45.2669539],[19.8434313,45.2667198]],[[19.8434313,45.2667198],[19.8434584,45.2666469]],[[19.8434584,45.2666469],[19.8434729,45.2666079]],[[19.8434729,45.2666079],[19.8435576,45.2663795]],[[19.8435576,45.2663795],[19.8435625,45.2663662]],[[19.8435625,45.2663662],[19.8435735,45.2663367]],[[19.8435735,45.2663367],[19.8436015,45.2662617]],[[19.8436015,45.2662617],[19.843648,45.2661333]],[[19.843648,45.2661333],[19.8436587,45.2661039]],[[19.8436587,45.2661039],[19.8436641,45.266089]],[[19.8436641,45.266089],[19.8436704,45.2660715]],[[19.8436704,45.2660715],[19.8437239,45.2659239]],[[19.8437239,45.2659239],[19.8438191,45.2656748]],[[19.8438191,45.2656748],[19.843854,45.2655553]],[[19.843854,45.2655553],[19.8438634,45.265519]],[[19.8438634,45.265519],[19.8438755,45.2654718]],[[19.8438755,45.2654718],[19.843896,45.2653787]],[[19.843896,45.2653787],[19.8439123,45.2652599]],[[19.8439123,45.2652599],[19.8439264,45.265133]],[[19.8439264,45.265133],[19.8439244,45.2649546]],[[19.8439244,45.2649546],[19.843916,45.2648198]],[[19.843916,45.2648198],[19.8438972,45.2646864]],[[19.8438972,45.2646864],[19.8438921,45.2646421]],[[19.8438921,45.2646421],[19.8438872,45.2646116]],[[19.8438872,45.2646116],[19.8438692,45.2645002]],[[19.8438692,45.2645002],[19.8438531,45.2644003]],[[19.8438531,45.2644003],[19.843848,45.2643689]],[[19.843848,45.2643689],[19.8438438,45.2643347]],[[19.8438438,45.2643347],[19.8437508,45.2636881]],[[19.8437508,45.2636881],[19.8437444,45.2636363]],[[19.8437444,45.2636363],[19.8437392,45.2636049]],[[19.8437392,45.2636049],[19.8437283,45.2635339]],[[19.8437283,45.2635339],[19.8437094,45.2634231]],[[19.8437094,45.2634231],[19.8437051,45.2633928]],[[19.8437051,45.2633928],[19.8437033,45.2633793]],[[19.8437033,45.2633793],[19.8436031,45.2627161]],[[19.8436031,45.2627161],[19.8435851,45.2626023]],[[19.8435851,45.2626023],[19.8435836,45.2625872]],[[19.8435836,45.2625872],[19.8435663,45.2624838]],[[19.8435663,45.2624838],[19.8435621,45.2624686]],[[19.8435621,45.2624686],[19.8435543,45.2624008]],[[19.8435543,45.2624008],[19.8435493,45.2623661]],[[19.8435493,45.2623661],[19.8435456,45.2623394]],[[19.8435456,45.2623394],[19.843476,45.2619497]],[[19.843476,45.2619497],[19.8434684,45.2619035]],[[19.8434684,45.2619035],[19.843467,45.2618951]],[[19.843467,45.2618951],[19.8434579,45.2618564]],[[19.8434579,45.2618564],[19.8434262,45.2617206]],[[19.8434262,45.2617206],[19.8433615,45.2615268]],[[19.8433615,45.2615268],[19.8431991,45.2610554]],[[19.8431991,45.2610554],[19.8431635,45.2610196]],[[19.8431635,45.2610196],[19.843134,45.260969]],[[19.843134,45.260969],[19.8431196,45.260926]],[[19.8431196,45.260926],[19.8430929,45.2608466]],[[19.8430929,45.2608466],[19.843051,45.2606759]],[[19.843051,45.2606759],[19.8430348,45.260597]],[[19.8430348,45.260597],[19.8430288,45.2605676]],[[19.8430288,45.2605676],[19.8430076,45.2604641]],[[19.8430076,45.2604641],[19.842988,45.2603685]],[[19.842988,45.2603685],[19.8429537,45.2602395]],[[19.8429537,45.2602395],[19.8429277,45.2601752]],[[19.8429277,45.2601752],[19.8429219,45.2601268]],[[19.8429219,45.2601268],[19.8429221,45.2600784]],[[19.8429221,45.2600784],[19.8428266,45.2598995]],[[19.8428266,45.2598995],[19.8426143,45.2594455]],[[19.8426143,45.2594455],[19.8424285,45.2589851]],[[19.8424285,45.2589851],[19.8423269,45.2587309]],[[19.8423269,45.2587309],[19.8421138,45.2581973]],[[19.8421138,45.2581973],[19.8420939,45.2581464]],[[19.8420939,45.2581464],[19.8420847,45.2581229]],[[19.8420847,45.2581229],[19.8420435,45.2580246]],[[19.8420435,45.2580246],[19.8419881,45.2578873]],[[19.8419881,45.2578873],[19.8419816,45.257869]],[[19.8419816,45.257869],[19.8419428,45.2577595]],[[19.8419428,45.2577595],[19.8418411,45.2575605]],[[19.8418411,45.2575605],[19.8417945,45.2574477]],[[19.8417945,45.2574477],[19.8417218,45.2572715]],[[19.8417218,45.2572715],[19.8416974,45.2572125]],[[19.8416974,45.2572125],[19.8416683,45.2571071]],[[19.8416683,45.2571071],[19.84162,45.2570766]],[[19.84162,45.2570766],[19.8415942,45.2570443]],[[19.8415942,45.2570443],[19.8415781,45.2569998]],[[19.8415781,45.2569998],[19.8415473,45.256628]],[[19.8415473,45.256628],[19.8415487,45.256501]],[[19.8415487,45.256501],[19.8415413,45.2564279]],[[19.8415413,45.2564279],[19.8415299,45.2563341]],[[19.8415299,45.2563341],[19.8415237,45.2562862]],[[19.8415237,45.2562862],[19.8415017,45.256167]],[[19.8415017,45.256167],[19.8414931,45.2560924]],[[19.8414931,45.2560924],[19.8414816,45.2559933]],[[19.8414816,45.2559933],[19.8414766,45.2558284]],[[19.8414766,45.2558284],[19.8414944,45.2557172]],[[19.8414944,45.2557172],[19.8415402,45.2555929]],[[19.8415402,45.2555929],[19.8415674,45.2555057]],[[19.8415674,45.2555057],[19.8416096,45.25542]],[[19.8416096,45.25542],[19.8417108,45.2552468]],[[19.8417108,45.2552468],[19.8419172,45.25494]],[[19.8419172,45.25494],[19.8422479,45.2544575]],[[19.8422479,45.2544575],[19.8422713,45.25443]],[[19.8422713,45.25443],[19.8422913,45.2543999]],[[19.8422913,45.2543999],[19.8424147,45.2542417]],[[19.8424147,45.2542417],[19.8425368,45.2540944]],[[19.8425368,45.2540944],[19.842557,45.2540712]],[[19.842557,45.2540712],[19.842595,45.2540276]],[[19.842595,45.2540276],[19.8426879,45.2539182]],[[19.8426879,45.2539182],[19.8427456,45.2538658]],[[19.8427456,45.2538658],[19.84282,45.2538054]],[[19.84282,45.2538054],[19.8428891,45.2537578]],[[19.8428891,45.2537578],[19.8429561,45.2537143]],[[19.8429561,45.2537143],[19.8430353,45.2536643]],[[19.8430353,45.2536643],[19.8432029,45.2535793]],[[19.8432029,45.2535793],[19.8433035,45.2535368]],[[19.8433035,45.2535368],[19.8434239,45.2534916]],[[19.8434239,45.2534916],[19.8433372,45.2533668]],[[19.8433372,45.2533668],[19.8430987,45.2530382]],[[19.8430987,45.2530382],[19.8428084,45.2526382]],[[19.8428084,45.2526382],[19.8427774,45.2525923]],[[19.8427774,45.2525923],[19.8425974,45.2523263]],[[19.8425974,45.2523263],[19.8424909,45.2521689]],[[19.8424909,45.2521689],[19.8423787,45.252008]],[[19.8423787,45.252008],[19.8423188,45.2519193]],[[19.8423188,45.2519193],[19.8422863,45.2518642]],[[19.8422863,45.2518642],[19.8422406,45.2517772]],[[19.8422406,45.2517772],[19.8421833,45.2516462]],[[19.8421833,45.2516462],[19.8420902,45.2514343]],[[19.8420902,45.2514343],[19.8421162,45.2514256]],[[19.8421162,45.2514256],[19.8421549,45.2514118]],[[19.8421549,45.2514118],[19.8421869,45.2514005]],[[19.8421869,45.2514005],[19.8422977,45.251357]],[[19.8422977,45.251357],[19.8423282,45.2513451]],[[19.8423282,45.2513451],[19.8425009,45.2512852]],[[19.8425009,45.2512852],[19.8426601,45.2512281]],[[19.8426601,45.2512281],[19.8427255,45.2512023]],[[19.8427255,45.2512023],[19.8427887,45.2511775]],[[19.8427887,45.2511775],[19.8429408,45.2511132]],[[19.8429408,45.2511132],[19.8430064,45.2510839]],[[19.8430064,45.2510839],[19.8435777,45.2508177]],[[19.8435777,45.2508177],[19.8436334,45.2507923]],[[19.8436334,45.2507923],[19.8436998,45.2507582]],[[19.8436998,45.2507582],[19.8440117,45.2505982]],[[19.8440117,45.2505982],[19.8443907,45.2503392]],[[19.8443907,45.2503392],[19.8446391,45.2501468]],[[19.8446391,45.2501468],[19.8449059,45.249946]],[[19.8449059,45.249946],[19.8449606,45.2498739]],[[19.8449606,45.2498739],[19.8449963,45.2498247]],[[19.8449963,45.2498247],[19.8450105,45.2498051]],[[19.8450105,45.2498051],[19.8451366,45.2496312]],[[19.8451366,45.2496312],[19.8451625,45.2495954]],[[19.8451625,45.2495954],[19.8451785,45.2495734]],[[19.8451785,45.2495734],[19.845245,45.2494817]],[[19.845245,45.2494817],[19.845308,45.2493879]],[[19.845308,45.2493879],[19.845319,45.2493704]],[[19.845319,45.2493704],[19.8453283,45.2493555]],[[19.8453283,45.2493555],[19.84577,45.2486523]],[[19.84577,45.2486523],[19.8457911,45.2486187]],[[19.8457911,45.2486187],[19.8458302,45.2485565]],[[19.8458302,45.2485565],[19.8458549,45.2485138]],[[19.8458549,45.2485138],[19.8459019,45.2484326]],[[19.8459019,45.2484326],[19.8459539,45.2483429]],[[19.8459539,45.2483429],[19.8461934,45.2479409]],[[19.8461934,45.2479409],[19.8462204,45.2478922]],[[19.8462204,45.2478922],[19.8465593,45.2472495]],[[19.8465593,45.2472495],[19.8466748,45.2470708]],[[19.8466748,45.2470708],[19.8467251,45.2470062]],[[19.8467251,45.2470062],[19.8467886,45.2469562]],[[19.8467886,45.2469562],[19.8468607,45.2469062]],[[19.8468607,45.2469062],[19.8470253,45.2468058]],[[19.8470253,45.2468058],[19.8471451,45.2467327]],[[19.8471451,45.2467327],[19.8473946,45.2465861]],[[19.8473946,45.2465861],[19.8476609,45.2464296]],[[19.8476609,45.2464296],[19.8477902,45.2463748]],[[19.8477902,45.2463748],[19.847826,45.2463601]],[[19.847826,45.2463601],[19.8479261,45.2463192]],[[19.8479261,45.2463192],[19.8477518,45.2461336]],[[19.8477518,45.2461336],[19.8475152,45.2458787]],[[19.8475152,45.2458787],[19.8473188,45.2456507]],[[19.8473188,45.2456507],[19.8471833,45.2455062]],[[19.8471833,45.2455062],[19.8470975,45.2454312]],[[19.8470975,45.2454312],[19.8470338,45.245383]],[[19.8470338,45.245383],[19.8470753,45.245383]],[[19.8470753,45.245383],[19.847133,45.2453726]],[[19.847133,45.2453726],[19.8471591,45.2453578]],[[19.8471591,45.2453578],[19.8471931,45.2453336]],[[19.8471931,45.2453336],[19.8472172,45.245312]],[[19.8472172,45.245312],[19.8472507,45.2452684]],[[19.8472507,45.2452684],[19.847256,45.2452204]],[[19.847256,45.2452204],[19.8472497,45.2451904]],[[19.8472497,45.2451904],[19.8472255,45.2451583]],[[19.8472255,45.2451583],[19.847196,45.2451281]],[[19.847196,45.2451281],[19.8471531,45.2451035]],[[19.8471531,45.2451035],[19.8471639,45.2450384]],[[19.8471639,45.2450384],[19.8471732,45.2449458]],[[19.8471732,45.2449458],[19.8471987,45.2447825]],[[19.8471987,45.2447825],[19.8472219,45.244623]],[[19.8472219,45.244623],[19.8472269,45.2445955]],[[19.8472269,45.2445955],[19.8472517,45.2444831]],[[19.8472517,45.2444831],[19.8473095,45.2443072]],[[19.8473095,45.2443072],[19.8473142,45.2442797]],[[19.8473142,45.2442797],[19.8473423,45.2440998]],[[19.8473423,45.2440998],[19.8474059,45.2441066]],[[19.8474059,45.2441066],[19.8474399,45.2441093]],[[19.8474399,45.2441093],[19.847466,45.2441115]],[[19.847466,45.2441115],[19.847642,45.2441211]],[[19.847642,45.2441211],[19.847825,45.2441508]],[[19.847825,45.2441508],[19.847933,45.2441735]],[[19.847933,45.2441735],[19.8480248,45.2441998]],[[19.8480248,45.2441998],[19.8481133,45.2442263]],[[19.8481133,45.2442263],[19.8482939,45.2443169]],[[19.8482939,45.2443169],[19.8484278,45.2443856]],[[19.8484278,45.2443856],[19.8484426,45.2444056]],[[19.8484426,45.2444056],[19.8484209,45.2444588]],[[19.8484209,45.2444588],[19.848407,45.2445076]],[[19.848407,45.2445076],[19.8483917,45.2445278]],[[19.8483917,45.2445278],[19.848384,45.2445462]],[[19.848384,45.2445462],[19.8483572,45.2446423]],[[19.8483572,45.2446423],[19.8483236,45.2446954]],[[19.8483236,45.2446954],[19.848062,45.2451096]]]}},{"type":"Feature","properties":{"upstream":"Novi Sad 2","secondary":"Podbara","ratio":"35/10","route_length_km":1.619424153654322,"upstream_association_status":"inferred by minimum road-network distance","provenance":"Upstream association inferred by minimum road-network distance; street-routed 35 kV corridor is inferred and exact route is unverified"},"geometry":{"type":"MultiLineString","coordinates":[[[19.8459439,45.2727107],[19.8464662,45.272531]],[[19.8464662,45.272531],[19.8466758,45.272454]],[[19.8466758,45.272454],[19.8467283,45.2724347]],[[19.8467283,45.2724347],[19.8464863,45.272085]],[[19.8464863,45.272085],[19.8463189,45.2718697]],[[19.8463189,45.2718697],[19.8461151,45.2715993]],[[19.8461151,45.2715993],[19.845922,45.2713756]],[[19.845922,45.2713756],[19.8457047,45.2711774]],[[19.8457047,45.2711774],[19.8454526,45.2709934]],[[19.8454526,45.2709934],[19.845171,45.2708386]],[[19.845171,45.2708386],[19.8450392,45.2707669]],[[19.8450392,45.2707669],[19.8447269,45.2706458]],[[19.8447269,45.2706458],[19.8442946,45.2705504]],[[19.8442946,45.2705504],[19.8440204,45.2704976]],[[19.8440204,45.2704976],[19.8437431,45.2704586]],[[19.8437431,45.2704586],[19.8432827,45.2704121]],[[19.8432827,45.2704121],[19.8431967,45.2704035]],[[19.8431967,45.2704035],[19.8429,45.2703767]],[[19.8429,45.2703767],[19.842714,45.2703598]],[[19.842714,45.2703598],[19.8423034,45.2703263]],[[19.8423034,45.2703263],[19.8421576,45.2703144]],[[19.8421576,45.2703144],[19.8421855,45.2702116]],[[19.8421855,45.2702116],[19.8422175,45.2701218]],[[19.8422175,45.2701218],[19.8423113,45.2698583]],[[19.8423113,45.2698583],[19.8423828,45.2696305]],[[19.8423828,45.2696305],[19.842514,45.2692963]],[[19.842514,45.2692963],[19.8425234,45.2692723]],[[19.8425234,45.2692723],[19.842726,45.2687366]],[[19.842726,45.2687366],[19.8427355,45.2687028]],[[19.8427355,45.2687028],[19.8427422,45.2686712]],[[19.8427422,45.2686712],[19.8427458,45.2686428]],[[19.8427458,45.2686428],[19.8427456,45.2685515]],[[19.8427456,45.2685515],[19.8428029,45.2683985]],[[19.8428029,45.2683985],[19.8428272,45.2683334]],[[19.8428272,45.2683334],[19.8428442,45.268298]],[[19.8428442,45.268298],[19.8428627,45.2682653]],[[19.8428627,45.2682653],[19.8429205,45.2681177]],[[19.8429205,45.2681177],[19.8430025,45.2679091]],[[19.8430025,45.2679091],[19.8430361,45.2678234]],[[19.8430361,45.2678234],[19.8430462,45.2677975]],[[19.8430462,45.2677975],[19.8430677,45.2677427]],[[19.8430677,45.2677427],[19.8430963,45.2676699]],[[19.8430963,45.2676699],[19.8431103,45.2676342]],[[19.8431103,45.2676342],[19.843195,45.2673632]],[[19.843195,45.2673632],[19.8432102,45.2673294]],[[19.8432102,45.2673294],[19.8432301,45.2672528]],[[19.8432301,45.2672528],[19.8432755,45.2671289]],[[19.8432755,45.2671289],[19.8433312,45.2669903]],[[19.8433312,45.2669903],[19.8433453,45.2669539]],[[19.8433453,45.2669539],[19.8434313,45.2667198]],[[19.8434313,45.2667198],[19.8434584,45.2666469]],[[19.8434584,45.2666469],[19.8434729,45.2666079]],[[19.8434729,45.2666079],[19.8435576,45.2663795]],[[19.8435576,45.2663795],[19.8435625,45.2663662]],[[19.8435625,45.2663662],[19.8435735,45.2663367]],[[19.8435735,45.2663367],[19.8436015,45.2662617]],[[19.8436015,45.2662617],[19.843648,45.2661333]],[[19.843648,45.2661333],[19.8436587,45.2661039]],[[19.8436587,45.2661039],[19.8436641,45.266089]],[[19.8436641,45.266089],[19.8436704,45.2660715]],[[19.8436704,45.2660715],[19.8437239,45.2659239]],[[19.8437239,45.2659239],[19.8438191,45.2656748]],[[19.8438191,45.2656748],[19.843854,45.2655553]],[[19.843854,45.2655553],[19.8438634,45.265519]],[[19.8438634,45.265519],[19.8438755,45.2654718]],[[19.8438755,45.2654718],[19.843896,45.2653787]],[[19.843896,45.2653787],[19.8439123,45.2652599]],[[19.8439123,45.2652599],[19.8439264,45.265133]],[[19.8439264,45.265133],[19.8439244,45.2649546]],[[19.8439244,45.2649546],[19.843916,45.2648198]],[[19.843916,45.2648198],[19.8438972,45.2646864]],[[19.8438972,45.2646864],[19.8438921,45.2646421]],[[19.8438921,45.2646421],[19.8438872,45.2646116]],[[19.8438872,45.2646116],[19.8438692,45.2645002]],[[19.8438692,45.2645002],[19.8438531,45.2644003]],[[19.8438531,45.2644003],[19.843848,45.2643689]],[[19.843848,45.2643689],[19.8438438,45.2643347]],[[19.8438438,45.2643347],[19.8437508,45.2636881]],[[19.8437508,45.2636881],[19.8437444,45.2636363]],[[19.8437444,45.2636363],[19.8437392,45.2636049]],[[19.8437392,45.2636049],[19.8437283,45.2635339]],[[19.8437283,45.2635339],[19.843898,45.2634908]],[[19.843898,45.2634908],[19.8453748,45.2631484]],[[19.8453748,45.2631484],[19.845348,45.2630977]],[[19.845348,45.2630977],[19.8450872,45.2625941]],[[19.8450872,45.2625941],[19.8450445,45.2624482]],[[19.8450445,45.2624482],[19.8450239,45.2623836]],[[19.8450239,45.2623836],[19.8450093,45.2623125]],[[19.8450093,45.2623125],[19.8449924,45.2621502]],[[19.8449924,45.2621502],[19.8449444,45.2617925]],[[19.8449444,45.2617925],[19.8452406,45.2617557]],[[19.8452406,45.2617557],[19.845381106607945,45.2617492827778]],[[19.845381106607945,45.2617492827778],[19.8453786,45.2616944]]]}},{"type":"Feature","properties":{"upstream":"Novi Sad 2","secondary":"Sever","ratio":"35/10","route_length_km":2.8367359999999993,"upstream_association_status":"inferred by minimum road-network distance","provenance":"Upstream association inferred by minimum road-network distance; street-routed 35 kV corridor is inferred and exact route is unverified"},"geometry":{"type":"MultiLineString","coordinates":[[[19.8459439,45.2727107],[19.8464662,45.272531]],[[19.8464662,45.272531],[19.8466758,45.272454]],[[19.8466758,45.272454],[19.8467283,45.2724347]],[[19.8467283,45.2724347],[19.8464863,45.272085]],[[19.8464863,45.272085],[19.8463189,45.2718697]],[[19.8463189,45.2718697],[19.8461151,45.2715993]],[[19.8461151,45.2715993],[19.845922,45.2713756]],[[19.845922,45.2713756],[19.8457047,45.2711774]],[[19.8457047,45.2711774],[19.8454526,45.2709934]],[[19.8454526,45.2709934],[19.845171,45.2708386]],[[19.845171,45.2708386],[19.8450392,45.2707669]],[[19.8450392,45.2707669],[19.8447269,45.2706458]],[[19.8447269,45.2706458],[19.8442946,45.2705504]],[[19.8442946,45.2705504],[19.8440204,45.2704976]],[[19.8440204,45.2704976],[19.8437431,45.2704586]],[[19.8437431,45.2704586],[19.8432827,45.2704121]],[[19.8432827,45.2704121],[19.8431967,45.2704035]],[[19.8431967,45.2704035],[19.8429,45.2703767]],[[19.8429,45.2703767],[19.842714,45.2703598]],[[19.842714,45.2703598],[19.8423034,45.2703263]],[[19.8423034,45.2703263],[19.8421576,45.2703144]],[[19.8421576,45.2703144],[19.8420323,45.2703041]],[[19.8420323,45.2703041],[19.8418874,45.2702923]],[[19.8418874,45.2702923],[19.8416024,45.270269]],[[19.8416024,45.270269],[19.8415311,45.2702635]],[[19.8415311,45.2702635],[19.8414526,45.2702552]],[[19.8414526,45.2702552],[19.8410615,45.2702142]],[[19.8410615,45.2702142],[19.8409858,45.2702077]],[[19.8409858,45.2702077],[19.8407498,45.2701748]],[[19.8407498,45.2701748],[19.8405958,45.2701534]],[[19.8405958,45.2701534],[19.8401541,45.2700979]],[[19.8401541,45.2700979],[19.8400602,45.2700883]],[[19.8400602,45.2700883],[19.8399167,45.2700738]],[[19.8399167,45.2700738],[19.8394308,45.2700297]],[[19.8394308,45.2700297],[19.8390249,45.2699928]],[[19.8390249,45.2699928],[19.8389862,45.2699893]],[[19.8389862,45.2699893],[19.8386543,45.2699592]],[[19.8386543,45.2699592],[19.8384919,45.2699451]],[[19.8384919,45.2699451],[19.8384296,45.269939]],[[19.8384296,45.269939],[19.8382261,45.2699213]],[[19.8382261,45.2699213],[19.8380373,45.2699052]],[[19.8380373,45.2699052],[19.8372512,45.2698345]],[[19.8372512,45.2698345],[19.8371514,45.2698256]],[[19.8371514,45.2698256],[19.8371041,45.2698214]],[[19.8371041,45.2698214],[19.8370493,45.2698164]],[[19.8370493,45.2698164],[19.8364812,45.2697642]],[[19.8364812,45.2697642],[19.8363532,45.2697529]],[[19.8363532,45.2697529],[19.8359711,45.2697156]],[[19.8359711,45.2697156],[19.8354352,45.2696634]],[[19.8354352,45.2696634],[19.8349553,45.2696165]],[[19.8349553,45.2696165],[19.834759,45.2695974]],[[19.834759,45.2695974],[19.8346534,45.2695885]],[[19.8346534,45.2695885],[19.8346076,45.2695847]],[[19.8346076,45.2695847],[19.8334407,45.2694867]],[[19.8334407,45.2694867],[19.8332295,45.2694672]],[[19.8332295,45.2694672],[19.8329948,45.269446]],[[19.8329948,45.269446],[19.8326609,45.2694145]],[[19.8326609,45.2694145],[19.8321079,45.2693607]],[[19.8321079,45.2693607],[19.8320567,45.2693578]],[[19.8320567,45.2693578],[19.832014,45.2693554]],[[19.832014,45.2693554],[19.8318182,45.2693445]],[[19.8318182,45.2693445],[19.831661,45.2693358]],[[19.831661,45.2693358],[19.8314689,45.2693251]],[[19.8314689,45.2693251],[19.8314278,45.2693228]],[[19.8314278,45.2693228],[19.8309845,45.2692962]],[[19.8309845,45.2692962],[19.8307569,45.2692858]],[[19.8307569,45.2692858],[19.8305385,45.2692707]],[[19.8305385,45.2692707],[19.8304299,45.269262]],[[19.8304299,45.269262],[19.8303089,45.2692605]],[[19.8303089,45.2692605],[19.8301278,45.2692728]],[[19.8301278,45.2692728],[19.8299374,45.2693049]],[[19.8299374,45.2693049],[19.829751,45.2693521]],[[19.829751,45.2693521],[19.8295324,45.2694313]],[[19.8295324,45.2694313],[19.8293862,45.2694927]],[[19.8293862,45.2694927],[19.8290442,45.269656]],[[19.8290442,45.269656],[19.8288464,45.2697461]],[[19.8288464,45.2697461],[19.82866,45.2698226]],[[19.82866,45.2698226],[19.8283967,45.2699935]],[[19.8283967,45.2699935],[19.8283074,45.2700507]],[[19.8283074,45.2700507],[19.828143,45.2701468]],[[19.828143,45.2701468],[19.8280344,45.270201]],[[19.8280344,45.270201],[19.8279685,45.270247]],[[19.8279685,45.270247],[19.8278077,45.2703356]],[[19.8278077,45.2703356],[19.8271983,45.2706885]],[[19.8271983,45.2706885],[19.8270719,45.2707626]],[[19.8270719,45.2707626],[19.8267346,45.2709572]],[[19.8267346,45.2709572],[19.8265834,45.2710509]],[[19.8265834,45.2710509],[19.8261318,45.2713305]],[[19.8261318,45.2713305],[19.8260574,45.2713813]],[[19.8260574,45.2713813],[19.8260093,45.27142]],[[19.8260093,45.27142],[19.8259503,45.2714964]],[[19.8259503,45.2714964],[19.8259127,45.2715606]],[[19.8259127,45.2715606],[19.8257813,45.2719221]],[[19.8257813,45.2719221],[19.8256908,45.2722166]],[[19.8256908,45.2722166],[19.8256858,45.2722329]],[[19.8256858,45.2722329],[19.8256512,45.2723506]],[[19.8256512,45.2723506],[19.8251065,45.272262]],[[19.8251065,45.272262],[19.8250727,45.2723631]],[[19.8250727,45.2723631],[19.8250664,45.272382]],[[19.8250664,45.272382],[19.8250368,45.2724667]],[[19.8250368,45.2724667],[19.8250214,45.2725184]],[[19.8250214,45.2725184],[19.8242134,45.2725206]],[[19.8242134,45.2725206],[19.8241658,45.2725425]],[[19.8241658,45.2725425],[19.8241277,45.2725723]],[[19.8241277,45.2725723],[19.824109,45.2726166]],[[19.824109,45.2726166],[19.824074,45.2734527]],[[19.824074,45.2734527],[19.8239029,45.273453]],[[19.8239029,45.273453],[19.8238848,45.273453]],[[19.8238848,45.273453],[19.8237062,45.2734528]],[[19.8237062,45.2734528],[19.8236554,45.2744682]],[[19.8236554,45.2744682],[19.8236314,45.2749831]],[[19.8236314,45.2749831],[19.8236264,45.2755227]],[[19.8236264,45.2755227],[19.8236221,45.2759804]],[[19.8236221,45.2759804],[19.8236215,45.2760462]],[[19.8236215,45.2760462],[19.8236183,45.2761202]],[[19.8236183,45.2761202],[19.8235985,45.2765733]],[[19.8235985,45.2765733],[19.8234951,45.2765983]],[[19.8234951,45.2765983],[19.8234606,45.2766066]],[[19.8234606,45.2766066],[19.8234138,45.276618]],[[19.8234138,45.276618],[19.8223378,45.2768781]],[[19.8223378,45.2768781],[19.8222875,45.2768791]],[[19.8222875,45.2768791],[19.8222332,45.2768614]],[[19.8222332,45.2768614],[19.8220318,45.2764261]],[[19.8220318,45.2764261],[19.8219626,45.2762583]],[[19.8219626,45.2762583],[19.8219785,45.276234]],[[19.8219785,45.276234],[19.8224381,45.2761306]]]}},{"type":"Feature","properties":{"upstream":"Novi Sad 2","secondary":"Industrijska","ratio":"35/10 (plus 35/20 section)","route_length_km":1.4855978274694388,"upstream_association_status":"inferred by minimum road-network distance","provenance":"Upstream association inferred by minimum road-network distance; street-routed 35 kV corridor is inferred and exact route is unverified"},"geometry":{"type":"MultiLineString","coordinates":[[[19.8459439,45.2727107],[19.8464662,45.272531]],[[19.8464662,45.272531],[19.8466758,45.272454]],[[19.8466758,45.272454],[19.8467283,45.2724347]],[[19.8467283,45.2724347],[19.8464863,45.272085]],[[19.8464863,45.272085],[19.8463189,45.2718697]],[[19.8463189,45.2718697],[19.8461151,45.2715993]],[[19.8461151,45.2715993],[19.845922,45.2713756]],[[19.845922,45.2713756],[19.8457047,45.2711774]],[[19.8457047,45.2711774],[19.8454526,45.2709934]],[[19.8454526,45.2709934],[19.845171,45.2708386]],[[19.845171,45.2708386],[19.8450392,45.2707669]],[[19.8450392,45.2707669],[19.8447269,45.2706458]],[[19.8447269,45.2706458],[19.8442946,45.2705504]],[[19.8442946,45.2705504],[19.8440204,45.2704976]],[[19.8440204,45.2704976],[19.8437431,45.2704586]],[[19.8437431,45.2704586],[19.8432827,45.2704121]],[[19.8432827,45.2704121],[19.8431967,45.2704035]],[[19.8431967,45.2704035],[19.8429,45.2703767]],[[19.8429,45.2703767],[19.842714,45.2703598]],[[19.842714,45.2703598],[19.8423034,45.2703263]],[[19.8423034,45.2703263],[19.8421576,45.2703144]],[[19.8421576,45.2703144],[19.8420323,45.2703041]],[[19.8420323,45.2703041],[19.8418874,45.2702923]],[[19.8418874,45.2702923],[19.8416024,45.270269]],[[19.8416024,45.270269],[19.8415311,45.2702635]],[[19.8415311,45.2702635],[19.8414526,45.2702552]],[[19.8414526,45.2702552],[19.8410615,45.2702142]],[[19.8410615,45.2702142],[19.8409858,45.2702077]],[[19.8409858,45.2702077],[19.8407498,45.2701748]],[[19.8407498,45.2701748],[19.8405958,45.2701534]],[[19.8405958,45.2701534],[19.8401541,45.2700979]],[[19.8401541,45.2700979],[19.8400602,45.2700883]],[[19.8400602,45.2700883],[19.8399167,45.2700738]],[[19.8399167,45.2700738],[19.8394308,45.2700297]],[[19.8394308,45.2700297],[19.8390249,45.2699928]],[[19.8390249,45.2699928],[19.8389862,45.2699893]],[[19.8389862,45.2699893],[19.8386543,45.2699592]],[[19.8386543,45.2699592],[19.8384919,45.2699451]],[[19.8384919,45.2699451],[19.8384296,45.269939]],[[19.8384296,45.269939],[19.8382261,45.2699213]],[[19.8382261,45.2699213],[19.8382432,45.269839]],[[19.8382432,45.269839],[19.8380555,45.2698232]],[[19.8380555,45.2698232],[19.8380028,45.2698182]],[[19.8380028,45.2698182],[19.8374746,45.2697687]],[[19.8374746,45.2697687],[19.8365118,45.2696785]],[[19.8365118,45.2696785],[19.8363694,45.2696652]],[[19.8363694,45.2696652],[19.8356852,45.2696012]],[[19.8356852,45.2696012],[19.8350937,45.2695459]],[[19.8350937,45.2695459],[19.834622,45.2695018]],[[19.834622,45.2695018],[19.8345655,45.2694965]],[[19.8345655,45.2694965],[19.8327429,45.2693361]],[[19.8327429,45.2693361],[19.832094,45.2692551]],[[19.832094,45.2692551],[19.8320473,45.2692521]],[[19.8320473,45.2692521],[19.8318528,45.2692395]],[[19.8318528,45.2692395],[19.8316955,45.2692293]],[[19.8316955,45.2692293],[19.8315105,45.2692173]],[[19.8315105,45.2692173],[19.8314657,45.2692144]],[[19.8314657,45.2692144],[19.8314197,45.2692114]],[[19.8314197,45.2692114],[19.8307715,45.2691822]],[[19.8307715,45.2691822],[19.8303437,45.2691746]],[[19.8303437,45.2691746],[19.8303338,45.2691033]],[[19.8303338,45.2691033],[19.8303328,45.2690841]],[[19.8303328,45.2690841],[19.830434633642632,45.26908674702576]],[[19.830434633642632,45.26908674702576],[19.8309291,45.2690996]]]}},{"type":"Feature","properties":{"upstream":"Novi Sad 4 - Sever III","secondary":"Telep","ratio":"35/10","route_length_km":3.729527,"upstream_association_status":"inferred by minimum road-network distance","provenance":"Upstream association inferred by minimum road-network distance; street-routed 35 kV corridor is inferred and exact route is unverified"},"geometry":{"type":"MultiLineString","coordinates":[[[19.7989571,45.2774711],[19.7989407,45.277321]],[[19.7989407,45.277321],[19.7989039,45.2769868]],[[19.7989039,45.2769868],[19.7988442,45.2764643]],[[19.7988442,45.2764643],[19.7988056,45.2763977]],[[19.7988056,45.2763977],[19.7993383,45.276138]],[[19.7993383,45.276138],[19.7996329,45.2759967]],[[19.7996329,45.2759967],[19.7997175,45.2759556]],[[19.7997175,45.2759556],[19.8002451,45.2756992]],[[19.8002451,45.2756992],[19.8003647,45.2756448]],[[19.8003647,45.2756448],[19.8004772,45.2755863]],[[19.8004772,45.2755863],[19.8005426,45.2755583]],[[19.8005426,45.2755583],[19.800565,45.2755487]],[[19.800565,45.2755487],[19.8006042,45.275537]],[[19.8006042,45.275537],[19.8006453,45.2755247]],[[19.8006453,45.2755247],[19.8007028,45.2755075]],[[19.8007028,45.2755075],[19.800818,45.2754866]],[[19.800818,45.2754866],[19.8007683,45.2754677]],[[19.8007683,45.2754677],[19.8007242,45.275443]],[[19.8007242,45.275443],[19.8006869,45.2754131]],[[19.8006869,45.2754131],[19.8006577,45.2753791]],[[19.8006577,45.2753791],[19.8006374,45.2753421]],[[19.8006374,45.2753421],[19.8006268,45.2753031]],[[19.8006268,45.2753031],[19.8006261,45.2752633]],[[19.8006261,45.2752633],[19.8006353,45.2752242]],[[19.8006353,45.2752242],[19.8006452,45.2752021]],[[19.8006452,45.2752021],[19.8006582,45.2751808]],[[19.8006582,45.2751808],[19.8006569,45.2751296]],[[19.8006569,45.2751296],[19.8006511,45.2750628]],[[19.8006511,45.2750628],[19.8006439,45.2750147]],[[19.8006439,45.2750147],[19.8006404,45.2749913]],[[19.8006404,45.2749913],[19.8006348,45.274954]],[[19.8006348,45.274954],[19.8006246,45.274903]],[[19.8006246,45.274903],[19.8005874,45.2747029]],[[19.8005874,45.2747029],[19.8005512,45.2745405]],[[19.8005512,45.2745405],[19.8005217,45.2743868]],[[19.8005217,45.2743868],[19.8005065,45.2742034]],[[19.8005065,45.2742034],[19.8005055,45.2739944]],[[19.8005055,45.2739944],[19.8005065,45.2737637]],[[19.8005065,45.2737637],[19.8005129,45.2735451]],[[19.8005129,45.2735451],[19.8005311,45.2732919]],[[19.8005311,45.2732919],[19.8005901,45.2727875]],[[19.8005901,45.2727875],[19.8006688,45.2723582]],[[19.8006688,45.2723582],[19.8007721,45.2719838]],[[19.8007721,45.2719838],[19.8009025,45.2716286]],[[19.8009025,45.2716286],[19.8010245,45.271351]],[[19.8010245,45.271351],[19.8011674,45.2710829]],[[19.8011674,45.2710829],[19.8013261,45.2708215]],[[19.8013261,45.2708215],[19.8016161,45.270355]],[[19.8016161,45.270355],[19.801868,45.2699392]],[[19.801868,45.2699392],[19.8021427,45.2695391]],[[19.8021427,45.2695391],[19.8022919,45.2693186]],[[19.8022919,45.2693186],[19.8027051,45.2687087]],[[19.8027051,45.2687087],[19.8035141,45.2675438]],[[19.8035141,45.2675438],[19.8039537,45.2669076]],[[19.8039537,45.2669076],[19.8039587,45.2669004]],[[19.8039587,45.2669004],[19.8043695,45.2662925]],[[19.8043695,45.2662925],[19.8042923,45.2662665]],[[19.8042923,45.2662665],[19.80425,45.2662527]],[[19.80425,45.2662527],[19.8041491,45.2662199]],[[19.8041491,45.2662199],[19.8041146,45.2662087]],[[19.8041146,45.2662087],[19.8040998,45.2661564]],[[19.8040998,45.2661564],[19.8040785,45.266089]],[[19.8040785,45.266089],[19.8040445,45.2660382]],[[19.8040445,45.2660382],[19.8039744,45.2659813]],[[19.8039744,45.2659813],[19.803849,45.2659155]],[[19.803849,45.2659155],[19.8035687,45.2658227]],[[19.8035687,45.2658227],[19.8034451,45.2657817]],[[19.8034451,45.2657817],[19.803007,45.2656363]],[[19.803007,45.2656363],[19.8027806,45.2655611]],[[19.8027806,45.2655611],[19.8025008,45.2654682]],[[19.8025008,45.2654682],[19.8018504,45.2652523]],[[19.8018504,45.2652523],[19.8016183,45.2651753]],[[19.8016183,45.2651753],[19.8007104,45.2648705]],[[19.8007104,45.2648705],[19.7988811,45.2642401]],[[19.7988811,45.2642401],[19.7973376,45.2636634]],[[19.7973376,45.2636634],[19.796442,45.263261]],[[19.796442,45.263261],[19.7962437,45.2631383]],[[19.7962437,45.2631383],[19.7960661,45.2630284]],[[19.7960661,45.2630284],[19.7957857,45.2628369]],[[19.7957857,45.2628369],[19.7952105,45.2623744]],[[19.7952105,45.2623744],[19.7930501,45.2593043]],[[19.7930501,45.2593043],[19.7923641,45.2583788]],[[19.7923641,45.2583788],[19.7922847,45.2582728]],[[19.7922847,45.2582728],[19.7929548,45.2580569]],[[19.7929548,45.2580569],[19.7931454,45.2578557]],[[19.7931454,45.2578557],[19.7932978,45.2573326]],[[19.7932978,45.2573326],[19.7933577,45.2571026]],[[19.7933577,45.2571026],[19.793492,45.2565218]],[[19.793492,45.2565218],[19.7935524,45.256436]],[[19.7935524,45.256436],[19.7935963,45.2563736]],[[19.7935963,45.2563736],[19.7937112,45.2562105]],[[19.7937112,45.2562105],[19.7937168,45.2562026]],[[19.7937168,45.2562026],[19.7937542,45.2561495]],[[19.7937542,45.2561495],[19.7938543,45.2560074]],[[19.7938543,45.2560074],[19.7939056,45.2559345]],[[19.7939056,45.2559345],[19.7939383,45.2558881]],[[19.7939383,45.2558881],[19.7940707,45.2557001]],[[19.7940707,45.2557001],[19.7940824,45.2556066]],[[19.7940824,45.2556066],[19.7942025,45.2554164]],[[19.7942025,45.2554164],[19.7942138,45.2553992]],[[19.7942138,45.2553992],[19.7942303,45.2553742]],[[19.7942303,45.2553742],[19.7942558,45.2553332]],[[19.7942558,45.2553332],[19.7943172,45.2552378]],[[19.7943172,45.2552378],[19.7943709,45.2551569]],[[19.7943709,45.2551569],[19.7943887,45.2551291]],[[19.7943887,45.2551291],[19.7944362,45.2550552]],[[19.7944362,45.2550552],[19.7945123,45.2549366]],[[19.7945123,45.2549366],[19.7947287,45.2546212]],[[19.7947287,45.2546212],[19.7948887,45.2543881]],[[19.7948887,45.2543881],[19.7949732,45.2542649]],[[19.7949732,45.2542649],[19.7950657,45.2541301]],[[19.7950657,45.2541301],[19.7951183,45.2540535]],[[19.7951183,45.2540535],[19.7951467,45.2540126]],[[19.7951467,45.2540126],[19.7951906,45.2539472]],[[19.7951906,45.2539472],[19.7950502,45.2538994]],[[19.7950502,45.2538994],[19.7950069,45.2538847]],[[19.7950069,45.2538847],[19.7949331,45.2538596]],[[19.7949331,45.2538596],[19.7940341,45.2535538]],[[19.7940341,45.2535538],[19.7927682,45.2531232]],[[19.7927682,45.2531232],[19.7916132,45.2527303]],[[19.7916132,45.2527303],[19.7916581,45.2526647]],[[19.7916581,45.2526647],[19.7921926,45.2518817]]]}}]}